ORBCOMM FM19            
1 25415U 98046C   24156.93354122  .00001682  00000+0  62338-3 0  9992
2 25415  44.9933 163.5829 0002583 219.4613 218.6951 14.35883386349938
ORBCOMM FM07            
1 25119U 97084H   24156.90084726  .00002637  00000+0  82504-3 0  9999
2 25119  45.0152  16.0860 0003422 120.4958 239.6230 14.42846279386962
ORBCOMM FM03            
1 25158U 98007B   24156.52394386  .00001778  00000+0  69785-3 0  9993
2 25158 107.9712  80.9444 0046805 190.0181 170.0028 14.32281245369921
ORBCOMM FM17            
1 25413U 98046A   24156.93467944  .00001203  00000+0  48416-3 0  9997
2 25413  44.9941 235.5826 0001922 183.1625 176.9210 14.33259989349015
ORBCOMM FM18            
1 25414U 98046B   24156.74069788  .00001690  00000+0  62395-3 0  9993
2 25414  44.9923 163.0486 0003822 213.0156 147.0453 14.36044695349945
